STARLINK-2145           
1 48555U 21041C   24133.06089308 -.00035566  00000+0 -23839-2 0  9995
2 48555  53.0555 254.2362 0002499  81.9751 278.1521 15.06348264165031
